TWILIGHT AH             
1 67394U 26004AH  26025.91786472  .00010924  00000+0  53704-3 0  9997
2 67394  97.4466  27.0632 0010827 108.9493 251.2916 15.18152708  2173
TWILIGHT AJ             
1 67395U 26004AJ  26025.93929766  .00004007  00000+0  44485-3 0  9996
2 67395  97.8007  26.8686 0004096 226.0941 133.9937 14.87770529  2122
TWILIGHT AK             
1 67396U 26004AK  26025.98759636  .00009678  00000+0  48173-3 0  9996
2 67396  97.4505  27.1304 0008899 108.3130 251.9072 15.17770560  2186
TWILIGHT AL             
1 67397U 26004AL  26025.98939316  .00016053  00000+0  79954-3 0  9998
2 67397  97.4525  27.1323 0007883 109.0195 251.1893 15.17630993  2189
TWILIGHT AM             
1 67398U 26004AM  26025.98716558  .00013925  00000+0  69013-3 0  9990
2 67398  97.4563  27.1424 0008635 115.4875 244.7253 15.17830789  2189
TWILIGHT AN             
1 67399U 26004AN  26025.91976775  .00009505  00000+0  47038-3 0  9995
2 67399  97.4551  27.0771 0009400 115.7980 244.4225 15.17974958  2174
TWILIGHT AP             
1 67400U 26004AP  26025.98271046  .00014899  00000+0  72812-3 0  9994
2 67400  97.4549  27.1452 0010770 116.5828 243.6512 15.18285859  2180
TWILIGHT AQ             
1 67401U 26004AQ  26025.98172660  .00009766  00000+0  47728-3 0  9992
2 67401  97.4491  27.1358 0011577 111.8817 248.3650 15.18382077  2189
TWILIGHT AR             
1 67402U 26004AR  26025.93064586  .00007994  00000+0  40991-3 0  9991
2 67402  97.4553  27.0632 0004932  94.4589 265.7208 15.16805673  2162
SHIJIAN-29B (SJ-29B)    
1 67403U 25315C   26025.86150398 -.00000055  00000+0  00000+0 0  9990
2 67403   3.0361  98.8617 0001141 318.0383  91.4834  1.00273560   268
STARLINK-36484          
1 67404U 26005A   26025.91668981 -.01472699  00000+0 -97736-2 0  9990
2 67404  43.0002 125.2914 0001208 279.7074 268.6119 15.77434443  3269
STARLINK-36452          
1 67405U 26005B   26025.91668981 -.01481052  00000+0 -98593-2 0  9996
2 67405  43.0005 125.2864 0001255 278.7843 271.6121 15.77382832  3263
