CCSDS_OMM_VERS = 2.0
CREATION_DATE  = 
ORIGINATOR     = 

OBJECT_NAME    = TWILIGHT AH
OBJECT_ID      = 2026-004AH
CENTER_NAME    = EARTH
REF_FRAME      = TEME
TIME_SYSTEM    = UTC
MEAN_ELEMENT_THEORY = SGP/SGP4

EPOCH          = 2026-01-25T22:01:43.511808
MEAN_MOTION    = 15.18152708
ECCENTRICITY   = .00108277
INCLINATION    = 97.4466
RA_OF_ASC_NODE = 27.0632
ARG_OF_PERICENTER = 108.9493
MEAN_ANOMALY   = 251.2916

EPHEMERIS_TYPE = 0
CLASSIFICATION_TYPE = U
NORAD_CAT_ID   = 67394
ELEMENT_SET_NO = 999
REV_AT_EPOCH   = 217
BSTAR          = .53703723E-3
MEAN_MOTION_DOT = .10924E-3
MEAN_MOTION_DDOT = 0

CCSDS_OMM_VERS = 2.0
CREATION_DATE  = 
ORIGINATOR     = 

OBJECT_NAME    = TWILIGHT AJ
OBJECT_ID      = 2026-004AJ
CENTER_NAME    = EARTH
REF_FRAME      = TEME
TIME_SYSTEM    = UTC
MEAN_ELEMENT_THEORY = SGP/SGP4

EPOCH          = 2026-01-25T22:32:35.317824
MEAN_MOTION    = 14.87770529
ECCENTRICITY   = .00040966
INCLINATION    = 97.8007
RA_OF_ASC_NODE = 26.8686
ARG_OF_PERICENTER = 226.0941
MEAN_ANOMALY   = 133.9937

EPHEMERIS_TYPE = 0
CLASSIFICATION_TYPE = U
NORAD_CAT_ID   = 67395
ELEMENT_SET_NO = 999
REV_AT_EPOCH   = 212
BSTAR          = .44484855E-3
MEAN_MOTION_DOT = .4007E-4
MEAN_MOTION_DDOT = 0

CCSDS_OMM_VERS = 2.0
CREATION_DATE  = 
ORIGINATOR     = 

OBJECT_NAME    = TWILIGHT AK
OBJECT_ID      = 2026-004AK
CENTER_NAME    = EARTH
REF_FRAME      = TEME
TIME_SYSTEM    = UTC
MEAN_ELEMENT_THEORY = SGP/SGP4

EPOCH          = 2026-01-25T23:42:08.325504
MEAN_MOTION    = 15.17770560
ECCENTRICITY   = .00088991
INCLINATION    = 97.4505
RA_OF_ASC_NODE = 27.1304
ARG_OF_PERICENTER = 108.3130
MEAN_ANOMALY   = 251.9072

EPHEMERIS_TYPE = 0
CLASSIFICATION_TYPE = U
NORAD_CAT_ID   = 67396
ELEMENT_SET_NO = 999
REV_AT_EPOCH   = 218
BSTAR          = .48173035E-3
MEAN_MOTION_DOT = .9678E-4
MEAN_MOTION_DDOT = 0

CCSDS_OMM_VERS = 2.0
CREATION_DATE  = 
ORIGINATOR     = 

OBJECT_NAME    = TWILIGHT AL
OBJECT_ID      = 2026-004AL
CENTER_NAME    = EARTH
REF_FRAME      = TEME
TIME_SYSTEM    = UTC
MEAN_ELEMENT_THEORY = SGP/SGP4

EPOCH          = 2026-01-25T23:44:43.569024
MEAN_MOTION    = 15.17630993
ECCENTRICITY   = .00078837
INCLINATION    = 97.4525
RA_OF_ASC_NODE = 27.1323
ARG_OF_PERICENTER = 109.0195
MEAN_ANOMALY   = 251.1893

EPHEMERIS_TYPE = 0
CLASSIFICATION_TYPE = U
NORAD_CAT_ID   = 67397
ELEMENT_SET_NO = 999
REV_AT_EPOCH   = 218
BSTAR          = .79953693E-3
MEAN_MOTION_DOT = .16053E-3
MEAN_MOTION_DDOT = 0

CCSDS_OMM_VERS = 2.0
CREATION_DATE  = 
ORIGINATOR     = 

OBJECT_NAME    = TWILIGHT AM
OBJECT_ID      = 2026-004AM
CENTER_NAME    = EARTH
REF_FRAME      = TEME
TIME_SYSTEM    = UTC
MEAN_ELEMENT_THEORY = SGP/SGP4

EPOCH          = 2026-01-25T23:41:31.106112
MEAN_MOTION    = 15.17830789
ECCENTRICITY   = .00086359
INCLINATION    = 97.4563
RA_OF_ASC_NODE = 27.1424
ARG_OF_PERICENTER = 115.4875
MEAN_ANOMALY   = 244.7253

EPHEMERIS_TYPE = 0
CLASSIFICATION_TYPE = U
NORAD_CAT_ID   = 67398
ELEMENT_SET_NO = 999
REV_AT_EPOCH   = 218
BSTAR          = .69012973E-3
MEAN_MOTION_DOT = .13925E-3
MEAN_MOTION_DDOT = 0

CCSDS_OMM_VERS = 2.0
CREATION_DATE  = 
ORIGINATOR     = 

OBJECT_NAME    = TWILIGHT AN
OBJECT_ID      = 2026-004AN
CENTER_NAME    = EARTH
REF_FRAME      = TEME
TIME_SYSTEM    = UTC
MEAN_ELEMENT_THEORY = SGP/SGP4

EPOCH          = 2026-01-25T22:04:27.933600
MEAN_MOTION    = 15.17974958
ECCENTRICITY   = .00094004
INCLINATION    = 97.4551
RA_OF_ASC_NODE = 27.0771
ARG_OF_PERICENTER = 115.7980
MEAN_ANOMALY   = 244.4225

EPHEMERIS_TYPE = 0
CLASSIFICATION_TYPE = U
NORAD_CAT_ID   = 67399
ELEMENT_SET_NO = 999
REV_AT_EPOCH   = 217
BSTAR          = .47037803E-3
MEAN_MOTION_DOT = .9505E-4
MEAN_MOTION_DDOT = 0

CCSDS_OMM_VERS = 2.0
CREATION_DATE  = 
ORIGINATOR     = 

OBJECT_NAME    = TWILIGHT AP
OBJECT_ID      = 2026-004AP
CENTER_NAME    = EARTH
REF_FRAME      = TEME
TIME_SYSTEM    = UTC
MEAN_ELEMENT_THEORY = SGP/SGP4

EPOCH          = 2026-01-25T23:35:06.183744
MEAN_MOTION    = 15.18285859
ECCENTRICITY   = .00107706
INCLINATION    = 97.4549
RA_OF_ASC_NODE = 27.1452
ARG_OF_PERICENTER = 116.5828
MEAN_ANOMALY   = 243.6512

EPHEMERIS_TYPE = 0
CLASSIFICATION_TYPE = U
NORAD_CAT_ID   = 67400
ELEMENT_SET_NO = 999
REV_AT_EPOCH   = 218
BSTAR          = .72812055E-3
MEAN_MOTION_DOT = .14899E-3
MEAN_MOTION_DDOT = 0

CCSDS_OMM_VERS = 2.0
CREATION_DATE  = 
ORIGINATOR     = 

OBJECT_NAME    = TWILIGHT AQ
OBJECT_ID      = 2026-004AQ
CENTER_NAME    = EARTH
REF_FRAME      = TEME
TIME_SYSTEM    = UTC
MEAN_ELEMENT_THEORY = SGP/SGP4

EPOCH          = 2026-01-25T23:33:41.178240
MEAN_MOTION    = 15.18382077
ECCENTRICITY   = .00115772
INCLINATION    = 97.4491
RA_OF_ASC_NODE = 27.1358
ARG_OF_PERICENTER = 111.8817
MEAN_ANOMALY   = 248.3650

EPHEMERIS_TYPE = 0
CLASSIFICATION_TYPE = U
NORAD_CAT_ID   = 67401
ELEMENT_SET_NO = 999
REV_AT_EPOCH   = 218
BSTAR          = .47728336E-3
MEAN_MOTION_DOT = .9766E-4
MEAN_MOTION_DDOT = 0

CCSDS_OMM_VERS = 2.0
CREATION_DATE  = 
ORIGINATOR     = 

OBJECT_NAME    = TWILIGHT AR
OBJECT_ID      = 2026-004AR
CENTER_NAME    = EARTH
REF_FRAME      = TEME
TIME_SYSTEM    = UTC
MEAN_ELEMENT_THEORY = SGP/SGP4

EPOCH          = 2026-01-25T22:20:07.802304
MEAN_MOTION    = 15.16805673
ECCENTRICITY   = .00049324
INCLINATION    = 97.4553
RA_OF_ASC_NODE = 27.0632
ARG_OF_PERICENTER = 94.4589
MEAN_ANOMALY   = 265.7208

EPHEMERIS_TYPE = 0
CLASSIFICATION_TYPE = U
NORAD_CAT_ID   = 67402
ELEMENT_SET_NO = 999
REV_AT_EPOCH   = 216
BSTAR          = .40990824E-3
MEAN_MOTION_DOT = .7994E-4
MEAN_MOTION_DDOT = 0

CCSDS_OMM_VERS = 2.0
CREATION_DATE  = 
ORIGINATOR     = 

OBJECT_NAME    = SHIJIAN-29B (SJ-29B)
OBJECT_ID      = 2025-315C
CENTER_NAME    = EARTH
REF_FRAME      = TEME
TIME_SYSTEM    = UTC
MEAN_ELEMENT_THEORY = SGP/SGP4

EPOCH          = 2026-01-25T20:40:33.943872
MEAN_MOTION    = 1.00273560
ECCENTRICITY   = .00011411
INCLINATION    = 3.0361
RA_OF_ASC_NODE = 98.8617
ARG_OF_PERICENTER = 318.0383
MEAN_ANOMALY   = 91.4834

EPHEMERIS_TYPE = 0
CLASSIFICATION_TYPE = U
NORAD_CAT_ID   = 67403
ELEMENT_SET_NO = 999
REV_AT_EPOCH   = 26
BSTAR          = 0
MEAN_MOTION_DOT = -.55E-6
MEAN_MOTION_DDOT = 0

CCSDS_OMM_VERS = 2.0
CREATION_DATE  = 
ORIGINATOR     = 

OBJECT_NAME    = STARLINK-36484
OBJECT_ID      = 2026-005A
CENTER_NAME    = EARTH
REF_FRAME      = TEME
TIME_SYSTEM    = UTC
MEAN_ELEMENT_THEORY = SGP/SGP4

EPOCH          = 2026-01-25T22:00:01.999584
MEAN_MOTION    = 15.77434443
ECCENTRICITY   = .00012089
INCLINATION    = 43.0002
RA_OF_ASC_NODE = 125.2914
ARG_OF_PERICENTER = 279.7074
MEAN_ANOMALY   = 268.6119

EPHEMERIS_TYPE = 0
CLASSIFICATION_TYPE = U
NORAD_CAT_ID   = 67404
ELEMENT_SET_NO = 999
REV_AT_EPOCH   = 326
BSTAR          = -.97736364E-2
MEAN_MOTION_DOT = -.1472699E-1
MEAN_MOTION_DDOT = 0

CCSDS_OMM_VERS = 2.0
CREATION_DATE  = 
ORIGINATOR     = 

OBJECT_NAME    = STARLINK-36452
OBJECT_ID      = 2026-005B
CENTER_NAME    = EARTH
REF_FRAME      = TEME
TIME_SYSTEM    = UTC
MEAN_ELEMENT_THEORY = SGP/SGP4

EPOCH          = 2026-01-25T22:00:01.999584
MEAN_MOTION    = 15.77382832
ECCENTRICITY   = .00012559
INCLINATION    = 43.0005
RA_OF_ASC_NODE = 125.2864
ARG_OF_PERICENTER = 278.7843
MEAN_ANOMALY   = 271.6121

EPHEMERIS_TYPE = 0
CLASSIFICATION_TYPE = U
NORAD_CAT_ID   = 67405
ELEMENT_SET_NO = 999
REV_AT_EPOCH   = 326
BSTAR          = -.9859345E-2
MEAN_MOTION_DOT = -.1481052E-1
MEAN_MOTION_DDOT = 0

